{
  "type": "FeatureCollection",
  "features": [
    {
      "type": "Feature",
      "properties": {
        "norad_id": 51444,
        "name": "CSG-2",
        "group": "resource",
        "lat": 78.2784901324098,
        "lon": 33.103309784789744,
        "alt_km": 614.2144614097888,
        "timestamp": "2025-12-15T22:44:28.581322+00:00",
        "meta_object_name": "CSG-2",
        "meta_object_id": "2022-008A",
        "meta_epoch": "2025-12-14T21:59:39.018912",
        "meta_mean_motion": 14.82165966,
        "meta_eccentricity": 0.0001469,
        "meta_inclination": 97.8808,
        "meta_ra_of_asc_node": 170.2065,
        "meta_arg_of_pericenter": 82.0603,
        "meta_mean_anomaly": 278.0777,
        "meta_ephemeris_type": 0,
        "meta_classification_type": "U",
        "meta_norad_cat_id": 51444,
        "meta_element_set_no": 999,
        "meta_rev_at_epoch": 20929,
        "meta_bstar": 5.0769599e-05,
        "meta_mean_motion_dot": 3.52e-06,
        "meta_mean_motion_ddot": 0,
        "tle_line1": "1 51444U 22008A   25348.91642383  .00000352  00000+0  50770-4 0  9990",
        "tle_line2": "2 51444  97.8808 170.2065 0001469  82.0603 278.0777 14.82165966209298"
      },
      "geometry": {
        "type": "Point",
        "coordinates": [
          33.103309784789744,
          78.2784901324098
        ]
      }
    },
    {
      "type": "Feature",
      "properties": {
        "norad_id": 52912,
        "name": "GAOFEN-12 03",
        "group": "resource",
        "lat": -14.212445898179935,
        "lon": -120.77577234944077,
        "alt_km": 634.6805699276701,
        "timestamp": "2025-12-15T22:44:28.581333+00:00",
        "meta_object_name": "GAOFEN-12 03",
        "meta_object_id": "2022-069A",
        "meta_epoch": "2025-12-15T08:11:55.341600",
        "meta_mean_motion": 14.79618308,
        "meta_eccentricity": 0.00021785,
        "meta_inclination": 97.8484,
        "meta_ra_of_asc_node": 236.6304,
        "meta_arg_of_pericenter": 58.1051,
        "meta_mean_anomaly": 302.0373,
        "meta_ephemeris_type": 0,
        "meta_classification_type": "U",
        "meta_norad_cat_id": 52912,
        "meta_element_set_no": 999,
        "meta_rev_at_epoch": 18742,
        "meta_bstar": 0.00020094775,
        "meta_mean_motion_dot": 1.456e-05,
        "meta_mean_motion_ddot": 0,
        "tle_line1": "1 52912U 22069A   25349.34161275  .00001456  00000+0  20095-3 0  9994",
        "tle_line2": "2 52912  97.8484 236.6304 0002178  58.1051 302.0373 14.79618308187420"
      },
      "geometry": {
        "type": "Point",
        "coordinates": [
          -120.77577234944077,
          -14.212445898179935
        ]
      }
    },
    {
      "type": "Feature",
      "properties": {
        "norad_id": 54754,
        "name": "SWOT",
        "group": "resource",
        "lat": 51.62365061939132,
        "lon": 86.54506260903752,
        "alt_km": 888.0050927288921,
        "timestamp": "2025-12-15T22:44:28.581343+00:00",
        "meta_object_name": "SWOT",
        "meta_object_id": "2022-173A",
        "meta_epoch": "2025-12-15T08:25:11.122752",
        "meta_mean_motion": 14.00167294,
        "meta_eccentricity": 3.502e-05,
        "meta_inclination": 77.6107,
        "meta_ra_of_asc_node": 283.465,
        "meta_arg_of_pericenter": 105.2769,
        "meta_mean_anomaly": 254.8421,
        "meta_ephemeris_type": 0,
        "meta_classification_type": "U",
        "meta_norad_cat_id": 54754,
        "meta_element_set_no": 999,
        "meta_rev_at_epoch": 15342,
        "meta_bstar": 5.7923506e-05,
        "meta_mean_motion_dot": 8.3e-07,
        "meta_mean_motion_ddot": 0,
        "tle_line1": "1 54754U 22173A   25349.35082318  .00000083  00000+0  57924-4 0  9994",
        "tle_line2": "2 54754  77.6107 283.4650 0000350 105.2769 254.8421 14.00167294153426"
      },
      "geometry": {
        "type": "Point",
        "coordinates": [
          86.54506260903752,
          51.62365061939132
        ]
      }
    },
    {
      "type": "Feature",
      "properties": {
        "norad_id": 57654,
        "name": "GAOFEN-12 04",
        "group": "resource",
        "lat": 23.190531319978863,
        "lon": 89.0715334408255,
        "alt_km": 629.7483515528493,
        "timestamp": "2025-12-15T22:44:28.581354+00:00",
        "meta_object_name": "GAOFEN-12 04",
        "meta_object_id": "2023-123A",
        "meta_epoch": "2025-12-15T07:25:48.767808",
        "meta_mean_motion": 14.79707268,
        "meta_eccentricity": 0.00012779,
        "meta_inclination": 97.9122,
        "meta_ra_of_asc_node": 265.0277,
        "meta_arg_of_pericenter": 73.8126,
        "meta_mean_anomaly": 286.3226,
        "meta_ephemeris_type": 0,
        "meta_classification_type": "U",
        "meta_norad_cat_id": 57654,
        "meta_element_set_no": 999,
        "meta_rev_at_epoch": 12543,
        "meta_bstar": 0.0001942425,
        "meta_mean_motion_dot": 1.408e-05,
        "meta_mean_motion_ddot": 0,
        "tle_line1": "1 57654U 23123A   25349.30959222  .00001408  00000+0  19424-3 0  9998",
        "tle_line2": "2 57654  97.9122 265.0277 0001277  73.8126 286.3226 14.79707268125437"
      },
      "geometry": {
        "type": "Point",
        "coordinates": [
          89.0715334408255,
          23.190531319978863
        ]
      }
    },
    {
      "type": "Feature",
      "properties": {
        "norad_id": 59065,
        "name": "PARS 1",
        "group": "resource",
        "lat": -0.1791942127996898,
        "lon": 140.92528978997623,
        "alt_km": 450.0913807985726,
        "timestamp": "2025-12-15T22:44:28.581365+00:00",
        "meta_object_name": "PARS 1",
        "meta_object_id": "2024-039Q",
        "meta_epoch": "2025-12-15T07:56:16.357632",
        "meta_mean_motion": 15.41037403,
        "meta_eccentricity": 0.00124317,
        "meta_inclination": 97.4631,
        "meta_ra_of_asc_node": 320.3188,
        "meta_arg_of_pericenter": 64.5547,
        "meta_mean_anomaly": 295.6984,
        "meta_ephemeris_type": 0,
        "meta_classification_type": "U",
        "meta_norad_cat_id": 59065,
        "meta_element_set_no": 999,
        "meta_rev_at_epoch": 10028,
        "meta_bstar": 0.00022169379,
        "meta_mean_motion_dot": 9.089e-05,
        "meta_mean_motion_ddot": 0,
        "tle_line1": "1 59065U 24039Q   25349.33074488  .00009089  00000+0  22169-3 0  9991",
        "tle_line2": "2 59065  97.4631 320.3188 0012431  64.5547 295.6984 15.41037403100286"
      },
      "geometry": {
        "type": "Point",
        "coordinates": [
          140.92528978997623,
          -0.1791942127996898
        ]
      }
    },
    {
      "type": "Feature",
      "properties": {
        "norad_id": 59371,
        "name": "RESURS-P 4",
        "group": "resource",
        "lat": -38.8773356836661,
        "lon": 110.31707289313529,
        "alt_km": 476.9239843283822,
        "timestamp": "2025-12-15T22:44:28.581375+00:00",
        "meta_object_name": "RESURS-P 4",
        "meta_object_id": "2024-061A",
        "meta_epoch": "2025-12-15T09:14:52.149120",
        "meta_mean_motion": 15.32108174,
        "meta_eccentricity": 0.00013067,
        "meta_inclination": 97.2542,
        "meta_ra_of_asc_node": 295.661,
        "meta_arg_of_pericenter": 55.2561,
        "meta_mean_anomaly": 304.8804,
        "meta_ephemeris_type": 0,
        "meta_classification_type": "U",
        "meta_norad_cat_id": 59371,
        "meta_element_set_no": 999,
        "meta_rev_at_epoch": 9561,
        "meta_bstar": 0.00010790175,
        "meta_mean_motion_dot": 3.269e-05,
        "meta_mean_motion_ddot": 0,
        "tle_line1": "1 59371U 24061A   25349.38532580  .00003269  00000+0  10790-3 0  9994",
        "tle_line2": "2 59371  97.2542 295.6610 0001306  55.2561 304.8804 15.32108174 95619"
      },
      "geometry": {
        "type": "Point",
        "coordinates": [
          110.31707289313529,
          -38.8773356836661
        ]
      }
    },
    {
      "type": "Feature",
      "properties": {
        "norad_id": 59625,
        "name": "LEGION 1",
        "group": "resource",
        "lat": -80.58978503714732,
        "lon": -168.3075004537017,
        "alt_km": 521.7193613593054,
        "timestamp": "2025-12-15T22:44:28.581385+00:00",
        "meta_object_name": "LEGION 1",
        "meta_object_id": "2024-081A",
        "meta_epoch": "2025-12-15T08:54:36.467424",
        "meta_mean_motion": 15.16508095,
        "meta_eccentricity": 0.00038456,
        "meta_inclination": 97.5215,
        "meta_ra_of_asc_node": 63.9872,
        "meta_arg_of_pericenter": 306.2908,
        "meta_mean_anomaly": 53.797,
        "meta_ephemeris_type": 0,
        "meta_classification_type": "U",
        "meta_norad_cat_id": 59625,
        "meta_element_set_no": 999,
        "meta_rev_at_epoch": 8967,
        "meta_bstar": 0.00021154691,
        "meta_mean_motion_dot": 4.055e-05,
        "meta_mean_motion_ddot": 0,
        "tle_line1": "1 59625U 24081A   25349.37125541  .00004055  00000+0  21155-3 0  9993",
        "tle_line2": "2 59625  97.5215  63.9872 0003845 306.2908  53.7970 15.16508095 89672"
      },
      "geometry": {
        "type": "Point",
        "coordinates": [
          -168.3075004537017,
          -80.58978503714732
        ]
      }
    }
  ]
}